56059,ONEWEB-0558,2023,108.95,148.0,+,87.92,Active,1,LEO,India,UK,Commercial,Communications,LVM3,1 56059U 23043P   25295.45434822  .00003433  00000+0  82881-2 0  9993,2 56059  87.9165 291.4184 0002219  98.3546 261.7839 13.21744622126839,13.21744622,0.0002219,LEO
56060,ONEWEB-0559,2023,108.94,148.0,+,87.92,Active,1,LEO,India,UK,Commercial,Communications,LVM3,1 56060U 23043Q   25295.44285517  .00001740  00000+0  41844-2 0  9992,2 56060  87.9166 291.4133 0001959  99.0398 261.0958 13.21774310126842,13.2177431,0.0001959,LEO
56061,ONEWEB-0566,2023,108.94,148.0,+,87.92,Active,1,LEO,India,UK,Commercial,Communications,LVM3,1 56061U 23043R   25295.51198263  .00000354  00000+0  82659-3 0  9992,2 56061  87.9165 291.3971 0002042  98.9341 261.2024 13.21785466126830,13.21785466,0.0002042,LEO
56062,ONEWEB-0568,2023,109.37,148.0,+,87.9,Active,1,LEO,India,UK,Commercial,Communications,LVM3,1 56062U 23043S   25295.44444830 -.00000018  00000+0 -81005-4 0  9993,2 56062  87.8986 276.1271 0001980  77.7887 282.3466 13.16594554127694,13.16594554,0.000198,LEO
56063,ONEWEB-0574,2023,108.94,148.0,+,87.92,Active,1,LEO,India,UK,Commercial,Communications,LVM3,1 56063U 23043T   25295.50539567  .00000005  00000+0 -20095-4 0  9990,2 56063  87.9166 291.3868 0001729  87.4138 272.7194 13.21807591126879,13.21807591,0.0001729,LEO
56064,ONEWEB-0575,2023,109.37,148.0,+,87.9,Active,1,LEO,India,UK,Commercial,Communications,LVM3,1 56064U 23043U   25295.51409943  .00000007  00000+0 -14702-4 0  9996,2 56064  87.8981 276.1160 0001603  75.0277 285.1032 13.16595018127690,13.16595018,0.0001603,LEO
56065,ONEWEB-0576,2023,109.37,148.0,+,87.9,Active,1,LEO,India,UK,Commercial,Communications,LVM3,1 56065U 23043V   25295.49511453  .00000027  00000+0  38198-4 0  9990,2 56065  87.8988 276.1179 0001873  79.8367 280.2975 13.16593639127687,13.16593639,0.0001873,LEO
56066,ONEWEB-0577,2023,109.37,148.0,+,87.9,Active,1,LEO,India,UK,Commercial,Communications,LVM3,1 56066U 23043W   25295.50144558  .00000018  00000+0  14430-4 0  9994,2 56066  87.8985 276.1168 0001379  69.1607 290.9671 13.16594231127717,13.16594231,0.0001379,LEO
